{
    "links": {
        "self": "http://www.neowsapp.com/rest/v1/neo/3733935?api_key=iIulBulltgU6a56xZRHN4H3l9WmuAYTsLGpBGhQ2"
    },
    "id": "3733935",
    "neo_reference_id": "3733935",
    "name": "(2015 VG65)",
    "designation": "2015 VG65",
    "nasa_jpl_url": "http://ssd.jpl.nasa.gov/sbdb.cgi?sstr=3733935",
    "absolute_magnitude_h": 26.1,
    "estimated_diameter": {
        "kilometers": {
            "estimated_diameter_min": 0.0160160338,
            "estimated_diameter_max": 0.0358129403
        },
        "meters": {
            "estimated_diameter_min": 16.0160337979,
            "estimated_diameter_max": 35.8129403019
        },
        "miles": {
            "estimated_diameter_min": 0.0099518989,
            "estimated_diameter_max": 0.0222531225
        },
        "feet": {
            "estimated_diameter_min": 52.5460443254,
            "estimated_diameter_max": 117.4965270602
        }
    },
    "is_potentially_hazardous_asteroid": false,
    "close_approach_data": [
        {
            "close_approach_date": "2015-11-05",
            "close_approach_date_full": "2015-Nov-05 04:28",
            "epoch_date_close_approach": 1446697680000,
            "relative_velocity": {
                "kilometers_per_second": "14.9687379407",
                "kilometers_per_hour": "53887.4565866482",
                "miles_per_hour": "33483.5698996315"
            },
            "miss_distance": {
                "astronomical": "0.0194933063",
                "lunar": "7.5828961507",
                "kilometers": "2916157.101737581",
                "miles": "1812015.9987213778"
            },
            "orbiting_body": "Earth"
        },
        {
            "close_approach_date": "2097-07-08",
            "close_approach_date_full": "2097-Jul-08 08:50",
            "epoch_date_close_approach": 4024111800000,
            "relative_velocity": {
                "kilometers_per_second": "13.0621706026",
                "kilometers_per_hour": "47023.8141693708",
                "miles_per_hour": "29218.7694209627"
            },
            "miss_distance": {
                "astronomical": "0.0759136479",
                "lunar": "29.5304090331",
                "kilometers": "11356520.029769973",
                "miles": "7056614.3269447074"
            },
            "orbiting_body": "Earth"
        },
        {
            "close_approach_date": "2100-06-12",
            "close_approach_date_full": "2100-Jun-12 00:15",
            "epoch_date_close_approach": 4116442500000,
            "relative_velocity": {
                "kilometers_per_second": "24.6443053451",
                "kilometers_per_hour": "88719.4992423881",
                "miles_per_hour": "55126.8466264716"
            },
            "miss_distance": {
                "astronomical": "0.3604298016",
                "lunar": "140.2071928224",
                "kilometers": "53919530.603882592",
                "miles": "33504042.7141480896"
            },
            "orbiting_body": "Earth"
        }
    ],
    "orbital_data": {
        "orbit_id": "7",
        "orbit_determination_date": "2017-04-06 08:30:49",
        "first_observation_date": "2015-11-08",
        "last_observation_date": "2015-11-20",
        "data_arc_in_days": 12,
        "observations_used": 47,
        "orbit_uncertainty": "8",
        "minimum_orbit_intersection": ".0192235",
        "jupiter_tisserand_invariant": "3.543",
        "epoch_osculation": "2457337.5",
        "eccentricity": ".6040028829047054",
        "semi_major_axis": "2.042138773512718",
        "inclination": "4.618150199720179",
        "ascending_node_longitude": "235.5522239278376",
        "orbital_period": "1065.924154529671",
        "perihelion_distance": ".808681067019557",
        "perihelion_argument": "106.4987992412275",
        "aphelion_distance": "3.275596480005878",
        "perihelion_time": "2457291.270107303973",
        "mean_anomaly": "15.61345739267274",
        "mean_motion": ".3377350991345597",
        "equinox": "J2000",
        "orbit_class": {
            "orbit_class_type": "APO",
            "orbit_class_description": "Near-Earth asteroid orbits which cross the Earth’s orbit similar to that of 1862 Apollo",
            "orbit_class_range": "a (semi-major axis) > 1.0 AU; q (perihelion) < 1.017 AU"
        }
    },
    "is_sentry_object": false
}